{
  "type": "FeatureCollection",
  "features": [
    {
      "type": "Feature",
      "properties": {
        "norad_id": 44334,
        "name": "EUTELSAT 7C",
        "group": "eutelsat",
        "lat": 0.047075008149493204,
        "lon": -51.27171112767473,
        "alt_km": 35780.681487132395,
        "timestamp": "2025-12-09T14:52:25.837527+00:00",
        "meta_object_name": "EUTELSAT 7C",
        "meta_object_id": "2019-034B",
        "meta_epoch": "2025-12-09T05:02:43.094400",
        "meta_mean_motion": 1.00270347,
        "meta_eccentricity": 0.00033738,
        "meta_inclination": 0.0731,
        "meta_ra_of_asc_node": 179.8984,
        "meta_arg_of_pericenter": 62.5056,
        "meta_mean_anomaly": 278.4623,
        "meta_ephemeris_type": 0,
        "meta_classification_type": "U",
        "meta_norad_cat_id": 44334,
        "meta_element_set_no": 999,
        "meta_rev_at_epoch": 493,
        "meta_bstar": 0,
        "meta_mean_motion_dot": 5e-07,
        "meta_mean_motion_ddot": 0,
        "tle_line1": "1 44334U 19034B   25343.21022100  .00000050  00000+0  00000+0 0  9993",
        "tle_line2": "2 44334   0.0731 179.8984 0003373  62.5056 278.4623  1.00270347  4939"
      },
      "geometry": {
        "type": "Point",
        "coordinates": [
          -51.27171112767473,
          0.047075008149493204
        ]
      }
    },
    {
      "type": "Feature",
      "properties": {
        "norad_id": 44624,
        "name": "EUTELSAT 5 WEST B",
        "group": "eutelsat",
        "lat": -0.05960107657878774,
        "lon": -63.26380705354279,
        "alt_km": 35774.48928538562,
        "timestamp": "2025-12-09T14:52:25.837540+00:00",
        "meta_object_name": "EUTELSAT 5 WEST B",
        "meta_object_id": "2019-067A",
        "meta_epoch": "2025-12-09T04:59:20.916672",
        "meta_mean_motion": 1.00271075,
        "meta_eccentricity": 0.00035159,
        "meta_inclination": 0.0644,
        "meta_ra_of_asc_node": 341.3724,
        "meta_arg_of_pericenter": 277.7318,
        "meta_mean_anomaly": 248.9353,
        "meta_ephemeris_type": 0,
        "meta_classification_type": "U",
        "meta_norad_cat_id": 44624,
        "meta_element_set_no": 999,
        "meta_rev_at_epoch": 2253,
        "meta_bstar": 0,
        "meta_mean_motion_dot": -4e-07,
        "meta_mean_motion_ddot": 0,
        "tle_line1": "1 44624U 19067A   25343.20788098 -.00000040  00000+0  00000+0 0  9995",
        "tle_line2": "2 44624   0.0644 341.3724 0003515 277.7318 248.9353  1.00271075 22538"
      },
      "geometry": {
        "type": "Point",
        "coordinates": [
          -63.26380705354279,
          -0.05960107657878774
        ]
      }
    },
    {
      "type": "Feature",
      "properties": {
        "norad_id": 45027,
        "name": "EUTELSAT KONNECT",
        "group": "eutelsat",
        "lat": -0.04884822249249844,
        "lon": -51.08886412367443,
        "alt_km": 35780.15077799851,
        "timestamp": "2025-12-09T14:52:25.837560+00:00",
        "meta_object_name": "EUTELSAT KONNECT",
        "meta_object_id": "2020-005B",
        "meta_epoch": "2025-12-09T05:02:50.581824",
        "meta_mean_motion": 1.00268482,
        "meta_eccentricity": 0.00017613,
        "meta_inclination": 0.0701,
        "meta_ra_of_asc_node": 96.7335,
        "meta_arg_of_pericenter": 189.0112,
        "meta_mean_anomaly": 235.3659,
        "meta_ephemeris_type": 0,
        "meta_classification_type": "U",
        "meta_norad_cat_id": 45027,
        "meta_element_set_no": 999,
        "meta_rev_at_epoch": 2243,
        "meta_bstar": 0,
        "meta_mean_motion_dot": 5.1e-07,
        "meta_mean_motion_ddot": 0,
        "tle_line1": "1 45027U 20005B   25343.21030766  .00000051  00000+0  00000+0 0  9991",
        "tle_line2": "2 45027   0.0701  96.7335 0001761 189.0112 235.3659  1.00268482 22433"
      },
      "geometry": {
        "type": "Point",
        "coordinates": [
          -51.08886412367443,
          -0.04884822249249844
        ]
      }
    },
    {
      "type": "Feature",
      "properties": {
        "norad_id": 49056,
        "name": "EUTELSAT QUANTUM",
        "group": "eutelsat",
        "lat": -0.005862863300835696,
        "lon": -10.54717500163364,
        "alt_km": 35783.050138247534,
        "timestamp": "2025-12-09T14:52:25.837572+00:00",
        "meta_object_name": "EUTELSAT QUANTUM",
        "meta_object_id": "2021-069B",
        "meta_epoch": "2025-12-09T03:31:36.820416",
        "meta_mean_motion": 1.00270774,
        "meta_eccentricity": 0.00037625,
        "meta_inclination": 0.0132,
        "meta_ra_of_asc_node": 12.1818,
        "meta_arg_of_pericenter": 259.1599,
        "meta_mean_anomaly": 267.4033,
        "meta_ephemeris_type": 0,
        "meta_classification_type": "U",
        "meta_norad_cat_id": 49056,
        "meta_element_set_no": 999,
        "meta_rev_at_epoch": 1602,
        "meta_bstar": 0,
        "meta_mean_motion_dot": 1.28e-06,
        "meta_mean_motion_ddot": 0,
        "tle_line1": "1 49056U 21069B   25343.14695394  .00000128  00000+0  00000+0 0  9999",
        "tle_line2": "2 49056   0.0132  12.1818 0003762 259.1599 267.4033  1.00270774 16023"
      },
      "geometry": {
        "type": "Point",
        "coordinates": [
          -10.54717500163364,
          -0.005862863300835696
        ]
      }
    },
    {
      "type": "Feature",
      "properties": {
        "norad_id": 53765,
        "name": "EUTELSAT KONNECT VHTS",
        "group": "eutelsat",
        "lat": -0.037556475078944766,
        "lon": -55.55379308370618,
        "alt_km": 35781.84030699342,
        "timestamp": "2025-12-09T14:52:25.837583+00:00",
        "meta_object_name": "EUTELSAT KONNECT VHTS",
        "meta_object_id": "2022-110A",
        "meta_epoch": "2025-12-09T05:01:28.214112",
        "meta_mean_motion": 1.00270746,
        "meta_eccentricity": 0.00026154,
        "meta_inclination": 0.0634,
        "meta_ra_of_asc_node": 102.5857,
        "meta_arg_of_pericenter": 135.7711,
        "meta_mean_anomaly": 277.922,
        "meta_ephemeris_type": 0,
        "meta_classification_type": "U",
        "meta_norad_cat_id": 53765,
        "meta_element_set_no": 999,
        "meta_rev_at_epoch": 492,
        "meta_bstar": 0,
        "meta_mean_motion_dot": 1.9e-07,
        "meta_mean_motion_ddot": 0,
        "tle_line1": "1 53765U 22110A   25343.20935433  .00000019  00000+0  00000+0 0  9996",
        "tle_line2": "2 53765   0.0634 102.5857 0002615 135.7711 277.9220  1.00270746  4929"
      },
      "geometry": {
        "type": "Point",
        "coordinates": [
          -55.55379308370618,
          -0.037556475078944766
        ]
      }
    },
    {
      "type": "Feature",
      "properties": {
        "norad_id": 54048,
        "name": "EUTELSAT HOTBIRD 13F",
        "group": "eutelsat",
        "lat": 0.01092453446489834,
        "lon": -45.28575639584804,
        "alt_km": 35778.93206129879,
        "timestamp": "2025-12-09T14:52:25.837595+00:00",
        "meta_object_name": "EUTELSAT HOTBIRD 13F",
        "meta_object_id": "2022-134A",
        "meta_epoch": "2025-12-09T01:39:02.259360",
        "meta_mean_motion": 1.00271707,
        "meta_eccentricity": 0.0002159,
        "meta_inclination": 0.0489,
        "meta_ra_of_asc_node": 292.5872,
        "meta_arg_of_pericenter": 60.3329,
        "meta_mean_anomaly": 122.9214,
        "meta_ephemeris_type": 0,
        "meta_classification_type": "U",
        "meta_norad_cat_id": 54048,
        "meta_element_set_no": 999,
        "meta_rev_at_epoch": 1147,
        "meta_bstar": 0,
        "meta_mean_motion_dot": 8.9e-07,
        "meta_mean_motion_ddot": 0,
        "tle_line1": "1 54048U 22134A   25343.06877615  .00000089  00000+0  00000+0 0  9995",
        "tle_line2": "2 54048   0.0489 292.5872 0002159  60.3329 122.9214  1.00271707 11478"
      },
      "geometry": {
        "type": "Point",
        "coordinates": [
          -45.28575639584804,
          0.01092453446489834
        ]
      }
    },
    {
      "type": "Feature",
      "properties": {
        "norad_id": 54225,
        "name": "EUTELSAT HOTBIRD 13G",
        "group": "eutelsat",
        "lat": 0.03186128204723593,
        "lon": -45.28336169896298,
        "alt_km": 35790.89392692905,
        "timestamp": "2025-12-09T14:52:25.837607+00:00",
        "meta_object_name": "EUTELSAT HOTBIRD 13G",
        "meta_object_id": "2022-146A",
        "meta_epoch": "2025-12-09T00:10:38.547840",
        "meta_mean_motion": 1.00269396,
        "meta_eccentricity": 0.00016652,
        "meta_inclination": 0.0487,
        "meta_ra_of_asc_node": 236.9876,
        "meta_arg_of_pericenter": 310.6292,
        "meta_mean_anomaly": 266.0423,
        "meta_ephemeris_type": 0,
        "meta_classification_type": "U",
        "meta_norad_cat_id": 54225,
        "meta_element_set_no": 999,
        "meta_rev_at_epoch": 555,
        "meta_bstar": 0,
        "meta_mean_motion_dot": 8.9e-07,
        "meta_mean_motion_ddot": 0,
        "tle_line1": "1 54225U 22146A   25343.00739060  .00000089  00000+0  00000+0 0  9990",
        "tle_line2": "2 54225   0.0487 236.9876 0001665 310.6292 266.0423  1.00269396  5555"
      },
      "geometry": {
        "type": "Point",
        "coordinates": [
          -45.28336169896298,
          0.03186128204723593
        ]
      }
    }
  ]
}